{
  "type": "FeatureCollection",
  "features": [
    {
      "type": "Feature",
      "properties": {
        "norad_id": 30940,
        "name": "FENGYUN 1C DEB",
        "group": "fengyun-1c-debris",
        "lat": 45.98656898375142,
        "lon": -21.835302559336498,
        "alt_km": 839.2966962047703,
        "timestamp": "2025-12-12T20:43:07.314725+00:00",
        "meta_object_name": "FENGYUN 1C DEB",
        "meta_object_id": "1999-025BAE",
        "meta_epoch": "2025-12-05T06:06:10.312128",
        "meta_mean_motion": 14.08285934,
        "meta_eccentricity": 0.00414748,
        "meta_inclination": 98.6226,
        "meta_ra_of_asc_node": 339.9288,
        "meta_arg_of_pericenter": 24.7538,
        "meta_mean_anomaly": 346.6881,
        "meta_ephemeris_type": 0,
        "meta_classification_type": "U",
        "meta_norad_cat_id": 30940,
        "meta_element_set_no": 999,
        "meta_rev_at_epoch": 96027,
        "meta_bstar": 0.000647699,
        "meta_mean_motion_dot": 1.074e-05,
        "meta_mean_motion_ddot": 0,
        "tle_line1": "1 30940U 99025BAE 25339.25428602  .00001074  00000+0  64770-3 0  9990",
        "tle_line2": "2 30940  98.6226 339.9288 0041474  24.7538 346.6881 14.08285934960276"
      },
      "geometry": {
        "type": "Point",
        "coordinates": [
          -21.835302559336498,
          45.98656898375142
        ]
      }
    },
    {
      "type": "Feature",
      "properties": {
        "norad_id": 30941,
        "name": "FENGYUN 1C DEB",
        "group": "fengyun-1c-debris",
        "lat": 25.89096007885428,
        "lon": 27.86595383030369,
        "alt_km": 810.8007789616822,
        "timestamp": "2025-12-12T20:43:07.314735+00:00",
        "meta_object_name": "FENGYUN 1C DEB",
        "meta_object_id": "1999-025BAF",
        "meta_epoch": "2025-12-10T12:37:27.909408",
        "meta_mean_motion": 14.31003264,
        "meta_eccentricity": 0.0034282,
        "meta_inclination": 98.5459,
        "meta_ra_of_asc_node": 201.3824,
        "meta_arg_of_pericenter": 323.3554,
        "meta_mean_anomaly": 36.5284,
        "meta_ephemeris_type": 0,
        "meta_classification_type": "U",
        "meta_norad_cat_id": 30941,
        "meta_element_set_no": 999,
        "meta_rev_at_epoch": 96594,
        "meta_bstar": 0.0028954,
        "meta_mean_motion_dot": 7.631e-05,
        "meta_mean_motion_ddot": 0,
        "tle_line1": "1 30941U 99025BAF 25344.52601747  .00007631  00000+0  28954-2 0  9998",
        "tle_line2": "2 30941  98.5459 201.3824 0034282 323.3554  36.5284 14.31003264965948"
      },
      "geometry": {
        "type": "Point",
        "coordinates": [
          27.86595383030369,
          25.89096007885428
        ]
      }
    },
    {
      "type": "Feature",
      "properties": {
        "norad_id": 30942,
        "name": "FENGYUN 1C DEB",
        "group": "fengyun-1c-debris",
        "lat": 24.331647238574057,
        "lon": 169.062238682211,
        "alt_km": 776.4953738597396,
        "timestamp": "2025-12-12T20:43:07.314745+00:00",
        "meta_object_name": "FENGYUN 1C DEB",
        "meta_object_id": "1999-025BAG",
        "meta_epoch": "2025-12-10T11:01:13.742112",
        "meta_mean_motion": 14.14834633,
        "meta_eccentricity": 0.01379705,
        "meta_inclination": 98.6797,
        "meta_ra_of_asc_node": 342.7629,
        "meta_arg_of_pericenter": 112.7712,
        "meta_mean_anomaly": 43.1485,
        "meta_ephemeris_type": 0,
        "meta_classification_type": "U",
        "meta_norad_cat_id": 30942,
        "meta_element_set_no": 999,
        "meta_rev_at_epoch": 96612,
        "meta_bstar": 0.00030431529,
        "meta_mean_motion_dot": 6.02e-06,
        "meta_mean_motion_ddot": 0,
        "tle_line1": "1 30942U 99025BAG 25344.45918683  .00000602  00000+0  30432-3 0  9997",
        "tle_line2": "2 30942  98.6797 342.7629 0137970 112.7712  43.1485 14.14834633966123"
      },
      "geometry": {
        "type": "Point",
        "coordinates": [
          169.062238682211,
          24.331647238574057
        ]
      }
    },
    {
      "type": "Feature",
      "properties": {
        "norad_id": 30943,
        "name": "FENGYUN 1C DEB",
        "group": "fengyun-1c-debris",
        "lat": 50.90791863790193,
        "lon": -168.23174313117343,
        "alt_km": 856.5442084699025,
        "timestamp": "2025-12-12T20:43:07.314755+00:00",
        "meta_object_name": "FENGYUN 1C DEB",
        "meta_object_id": "1999-025BAH",
        "meta_epoch": "2025-12-11T11:37:48.593280",
        "meta_mean_motion": 14.04485324,
        "meta_eccentricity": 0.00508872,
        "meta_inclination": 98.7973,
        "meta_ra_of_asc_node": 359.4445,
        "meta_arg_of_pericenter": 69.2045,
        "meta_mean_anomaly": 291.4563,
        "meta_ephemeris_type": 0,
        "meta_classification_type": "U",
        "meta_norad_cat_id": 30943,
        "meta_element_set_no": 999,
        "meta_rev_at_epoch": 95724,
        "meta_bstar": 0.00048709138,
        "meta_mean_motion_dot": 7.44e-06,
        "meta_mean_motion_ddot": 0,
        "tle_line1": "1 30943U 99025BAH 25345.48459020  .00000744  00000+0  48709-3 0  9990",
        "tle_line2": "2 30943  98.7973 359.4445 0050887  69.2045 291.4563 14.04485324957244"
      },
      "geometry": {
        "type": "Point",
        "coordinates": [
          -168.23174313117343,
          50.90791863790193
        ]
      }
    },
    {
      "type": "Feature",
      "properties": {
        "norad_id": 30944,
        "name": "FENGYUN 1C DEB",
        "group": "fengyun-1c-debris",
        "lat": -30.364810888812038,
        "lon": 47.806237584598115,
        "alt_km": 792.1503784552606,
        "timestamp": "2025-12-12T20:43:07.314765+00:00",
        "meta_object_name": "FENGYUN 1C DEB",
        "meta_object_id": "1999-025BAJ",
        "meta_epoch": "2025-12-12T02:48:52.609248",
        "meta_mean_motion": 14.52442267,
        "meta_eccentricity": 0.01493237,
        "meta_inclination": 98.8506,
        "meta_ra_of_asc_node": 41.782,
        "meta_arg_of_pericenter": 102.5283,
        "meta_mean_anomaly": 289.6676,
        "meta_ephemeris_type": 0,
        "meta_classification_type": "U",
        "meta_norad_cat_id": 30944,
        "meta_element_set_no": 999,
        "meta_rev_at_epoch": 99067,
        "meta_bstar": 0.00024084626,
        "meta_mean_motion_dot": 1.08e-05,
        "meta_mean_motion_ddot": 0,
        "tle_line1": "1 30944U 99025BAJ 25346.11727557  .00001080  00000+0  24085-3 0  9990",
        "tle_line2": "2 30944  98.8506  41.7820 0149323 102.5283 289.6676 14.52442267990675"
      },
      "geometry": {
        "type": "Point",
        "coordinates": [
          47.806237584598115,
          -30.364810888812038
        ]
      }
    },
    {
      "type": "Feature",
      "properties": {
        "norad_id": 30945,
        "name": "FENGYUN 1C DEB",
        "group": "fengyun-1c-debris",
        "lat": 69.75591126406121,
        "lon": -31.11646439038114,
        "alt_km": 767.6873821458294,
        "timestamp": "2025-12-12T20:43:07.314776+00:00",
        "meta_object_name": "FENGYUN 1C DEB",
        "meta_object_id": "1999-025BAK",
        "meta_epoch": "2025-12-12T07:01:21.161856",
        "meta_mean_motion": 14.29708162,
        "meta_eccentricity": 0.00306042,
        "meta_inclination": 99.3881,
        "meta_ra_of_asc_node": 354.9223,
        "meta_arg_of_pericenter": 39.479,
        "meta_mean_anomaly": 336.7453,
        "meta_ephemeris_type": 0,
        "meta_classification_type": "U",
        "meta_norad_cat_id": 30945,
        "meta_element_set_no": 999,
        "meta_rev_at_epoch": 96431,
        "meta_bstar": 0.0027151014,
        "meta_mean_motion_dot": 6.956e-05,
        "meta_mean_motion_ddot": 0,
        "tle_line1": "1 30945U 99025BAK 25346.29260604  .00006956  00000+0  27151-2 0  9998",
        "tle_line2": "2 30945  99.3881 354.9223 0030604  39.4790 336.7453 14.29708162964318"
      },
      "geometry": {
        "type": "Point",
        "coordinates": [
          -31.11646439038114,
          69.75591126406121
        ]
      }
    },
    {
      "type": "Feature",
      "properties": {
        "norad_id": 30946,
        "name": "FENGYUN 1C DEB",
        "group": "fengyun-1c-debris",
        "lat": 33.86783792214781,
        "lon": 95.92693658165247,
        "alt_km": 788.340001991879,
        "timestamp": "2025-12-12T20:43:07.314798+00:00",
        "meta_object_name": "FENGYUN 1C DEB",
        "meta_object_id": "1999-025BAL",
        "meta_epoch": "2025-12-10T19:30:44.954784",
        "meta_mean_motion": 14.48128089,
        "meta_eccentricity": 0.00893348,
        "meta_inclination": 99.0389,
        "meta_ra_of_asc_node": 99.8685,
        "meta_arg_of_pericenter": 198.6165,
        "meta_mean_anomaly": 313.7183,
        "meta_ephemeris_type": 0,
        "meta_classification_type": "U",
        "meta_norad_cat_id": 30946,
        "meta_element_set_no": 999,
        "meta_rev_at_epoch": 98323,
        "meta_bstar": 0.0014069828,
        "meta_mean_motion_dot": 5.459e-05,
        "meta_mean_motion_ddot": 0,
        "tle_line1": "1 30946U 99025BAL 25344.81302031  .00005459  00000+0  14070-2 0  9999",
        "tle_line2": "2 30946  99.0389  99.8685 0089334 198.6165 313.7183 14.48128089983236"
      },
      "geometry": {
        "type": "Point",
        "coordinates": [
          95.92693658165247,
          33.86783792214781
        ]
      }
    }
  ]
}